{"type": "FeatureCollection", "features": [ {"type": "Feature", "properties": {"norad_id": 66530, "name": "STARLINK-35961", "group": "last-30-days", "lat": -35.776601727401975, "lon": 35.63586199365724, "alt_km": 382.6877848289114, "timestamp": "2025-12-07T05:38:08.684651+00:00", "meta": {"OBJECT_NAME": "STARLINK-35961", "OBJECT_ID": "2025-265Q", "EPOCH": "2025-12-06T14:00:01.999872", "MEAN_MOTION": 15.65137115, "ECCENTRICITY": 0.00011703, "INCLINATION": 43.0002, "RA_OF_ASC_NODE": 90.1744, "ARG_OF_PERICENTER": 279.0171, "MEAN_ANOMALY": 310.1807, "EPHEMERIS_TYPE": 0, "CLASSIFICATION_TYPE": "U", "NORAD_CAT_ID": 66530, "ELEMENT_SET_NO": 999, "REV_AT_EPOCH": 400, "BSTAR": -0.022269401, "MEAN_MOTION_DOT": -0.01990847, "MEAN_MOTION_DDOT": 0}, "tle": {"line1": "1 66530U 25265Q   25340.58335648 -.01990847  00000+0 -22269-1 0  9997", "line2": "2 66530  43.0002  90.1744 0001170 279.0171 310.1807 15.65137115  4001"}}, "geometry": {"type": "Point", "coordinates": [35.63586199365724, -35.776601727401975]}}, {"type": "Feature", "properties": {"norad_id": 66531, "name": "STARLINK-35960", "group": "last-30-days", "lat": -34.92953616778044, "lon": 37.73995998185645, "alt_km": 382.67994877694764, "timestamp": "2025-12-07T05:38:08.684660+00:00", "meta": {"OBJECT_NAME": "STARLINK-35960", "OBJECT_ID": "2025-265R", "EPOCH": "2025-12-06T14:00:01.999872", "MEAN_MOTION": 15.65138185, "ECCENTRICITY": 0.00011919, "INCLINATION": 43.0004, "RA_OF_ASC_NODE": 90.1695, "ARG_OF_PERICENTER": 274.6575, "MEAN_ANOMALY": 316.4573, "EPHEMERIS_TYPE": 0, "CLASSIFICATION_TYPE": "U", "NORAD_CAT_ID": 66531, "ELEMENT_SET_NO": 999, "REV_AT_EPOCH": 400, "BSTAR": -0.022282938, "MEAN_MOTION_DOT": -0.01992002, "MEAN_MOTION_DDOT": 0}, "tle": {"line1": "1 66531U 25265R   25340.58335648 -.01992002  00000+0 -22283-1 0  9999", "line2": "2 66531  43.0004  90.1695 0001191 274.6575 316.4573 15.65138185  4008"}}, "geometry": {"type": "Point", "coordinates": [37.73995998185645, -34.92953616778044]}}, {"type": "Feature", "properties": {"norad_id": 66532, "name": "STARLINK-35914", "group": "last-30-days", "lat": -34.04754824642695, "lon": 39.79766063657588, "alt_km": 382.5639139337218, "timestamp": "2025-12-07T05:38:08.684670+00:00", "meta": {"OBJECT_NAME": "STARLINK-35914", "OBJECT_ID": "2025-265S", "EPOCH": "2025-12-06T14:00:01.999872", "MEAN_MOTION": 15.65133196, "ECCENTRICITY": 0.00012549, "INCLINATION": 43.0003, "RA_OF_ASC_NODE": 90.1646, "ARG_OF_PERICENTER": 277.9145, "MEAN_ANOMALY": 315.1196, "EPHEMERIS_TYPE": 0, "CLASSIFICATION_TYPE": "U", "NORAD_CAT_ID": 66532, "ELEMENT_SET_NO": 999, "REV_AT_EPOCH": 400, "BSTAR": -0.022213505, "MEAN_MOTION_DOT": -0.01986242, "MEAN_MOTION_DDOT": 0}, "tle": {"line1": "1 66532U 25265S   25340.58335648 -.01986242  00000+0 -22214-1 0  9993", "line2": "2 66532  43.0003  90.1646 0001254 277.9145 315.1196 15.65133196  4007"}}, "geometry": {"type": "Point", "coordinates": [39.79766063657588, -34.04754824642695]}}, {"type": "Feature", "properties": {"norad_id": 66533, "name": "STARLINK-35707", "group": "last-30-days", "lat": -33.131887389563126, "lon": 41.81209016250597, "alt_km": 382.5575632746022, "timestamp": "2025-12-07T05:38:08.684679+00:00", "meta": {"OBJECT_NAME": "STARLINK-35707", "OBJECT_ID": "2025-265T", "EPOCH": "2025-12-06T14:00:01.999872", "MEAN_MOTION": 15.65137253, "ECCENTRICITY": 0.00012519, "INCLINATION": 43.0002, "RA_OF_ASC_NODE": 90.1598, "ARG_OF_PERICENTER": 275.9526, "MEAN_ANOMALY": 318.9969, "EPHEMERIS_TYPE": 0, "CLASSIFICATION_TYPE": "U", "NORAD_CAT_ID": 66533, "ELEMENT_SET_NO": 999, "REV_AT_EPOCH": 400, "BSTAR": -0.022272091, "MEAN_MOTION_DOT": -0.0199113, "MEAN_MOTION_DDOT": 0}, "tle": {"line1": "1 66533U 25265T   25340.58335648 -.01991130  00000+0 -22272-1 0  9990", "line2": "2 66533  43.0002  90.1598 0001251 275.9526 318.9969 15.65137253  4008"}}, "geometry": {"type": "Point", "coordinates": [41.81209016250597, -33.131887389563126]}}, {"type": "Feature", "properties": {"norad_id": 66534, "name": "STARLINK-35976", "group": "last-30-days", "lat": -32.18406459792528, "lon": 43.785655433492806, "alt_km": 382.50905247080664, "timestamp": "2025-12-07T05:38:08.684689+00:00", "meta": {"OBJECT_NAME": "STARLINK-35976", "OBJECT_ID": "2025-265U", "EPOCH": "2025-12-06T14:00:01.999872", "MEAN_MOTION": 15.65135357, "ECCENTRICITY": 0.00012423, "INCLINATION": 43.0003, "RA_OF_ASC_NODE": 90.1556, "ARG_OF_PERICENTER": 276.7961, "MEAN_ANOMALY": 320.0708, "EPHEMERIS_TYPE": 0, "CLASSIFICATION_TYPE": "U", "NORAD_CAT_ID": 66534, "ELEMENT_SET_NO": 999, "REV_AT_EPOCH": 400, "BSTAR": -0.022237628, "MEAN_MOTION_DOT": -0.01988281, "MEAN_MOTION_DDOT": 0}, "tle": {"line1": "1 66534U 25265U   25340.58335648 -.01988281  00000+0 -22238-1 0  9996", "line2": "2 66534  43.0003  90.1556 0001242 276.7961 320.0708 15.65135357  4004"}}, "geometry": {"type": "Point", "coordinates": [43.785655433492806, -32.18406459792528]}}, {"type": "Feature", "properties": {"norad_id": 66535, "name": "STARLINK-35514", "group": "last-30-days", "lat": -31.206720918860295, "lon": 45.71568016780239, "alt_km": 382.4287048284432, "timestamp": "2025-12-07T05:38:08.684703+00:00", "meta": {"OBJECT_NAME": "STARLINK-35514", "OBJECT_ID": "2025-265V", "EPOCH": "2025-12-06T14:00:01.999872", "MEAN_MOTION": 15.65136329, "ECCENTRICITY": 0.00012833, "INCLINATION": 43.0002, "RA_OF_ASC_NODE": 90.1508, "ARG_OF_PERICENTER": 277.9192, "MEAN_ANOMALY": 320.8632, "EPHEMERIS_TYPE": 0, "CLASSIFICATION_TYPE": "U", "NORAD_CAT_ID": 66535, "ELEMENT_SET_NO": 999, "REV_AT_EPOCH": 400, "BSTAR": -0.022246796, "MEAN_MOTION_DOT": -0.01989101, "MEAN_MOTION_DDOT": 0}, "tle": {"line1": "1 66535U 25265V   25340.58335648 -.01989101  00000+0 -22247-1 0  9999", "line2": "2 66535  43.0002  90.1508 0001283 277.9192 320.8632 15.65136329  4009"}}, "geometry": {"type": "Point", "coordinates": [45.71568016780239, -31.206720918860295]}}, {"type": "Feature", "properties": {"norad_id": 66536, "name": "STARLINK-35640", "group": "last-30-days", "lat": -30.200167700809683, "lon": 47.60711113139565, "alt_km": 382.41013060671594, "timestamp": "2025-12-07T05:38:08.684715+00:00", "meta": {"OBJECT_NAME": "STARLINK-35640", "OBJECT_ID": "2025-265W", "EPOCH": "2025-12-06T14:00:01.999872", "MEAN_MOTION": 15.65137261, "ECCENTRICITY": 0.00012687, "INCLINATION": 43.0002, "RA_OF_ASC_NODE": 90.1458, "ARG_OF_PERICENTER": 276.7297, "MEAN_ANOMALY": 323.9699, "EPHEMERIS_TYPE": 0, "CLASSIFICATION_TYPE": "U", "NORAD_CAT_ID": 66536, "ELEMENT_SET_NO": 999, "REV_AT_EPOCH": 398, "BSTAR": -0.022259959, "MEAN_MOTION_DOT": -0.0199019, "MEAN_MOTION_DDOT": 0}, "tle": {"line1": "1 66536U 25265W   25340.58335648 -.01990190  00000+0 -22260-1 0  9995", "line2": "2 66536  43.0002  90.1458 0001268 276.7297 323.9699 15.65137261  3989"}}, "geometry": {"type": "Point", "coordinates": [47.60711113139565, -30.200167700809683]}}, {"type": "Feature", "properties": {"norad_id": 66537, "name": "STARLINK-35582", "group": "last-30-days", "lat": -29.165854277515564, "lon": 49.46192179281049, "alt_km": 382.35479534210936, "timestamp": "2025-12-07T05:38:08.684728+00:00", "meta": {"OBJECT_NAME": "STARLINK-35582", "OBJECT_ID": "2025-265X", "EPOCH": "2025-12-06T14:00:01.999872", "MEAN_MOTION": 15.65135057, "ECCENTRICITY": 0.00012851, "INCLINATION": 43.0005, "RA_OF_ASC_NODE": 90.1408, "ARG_OF_PERICENTER": 275.8167, "MEAN_ANOMALY": 326.7997, "EPHEMERIS_TYPE": 0, "CLASSIFICATION_TYPE": "U", "NORAD_CAT_ID": 66537, "ELEMENT_SET_NO": 999, "REV_AT_EPOCH": 400, "BSTAR": -0.022206694, "MEAN_MOTION_DOT": -0.0198586, "MEAN_MOTION_DDOT": 0}, "tle": {"line1": "1 66537U 25265X   25340.58335648 -.01985860  00000+0 -22207-1 0  9995", "line2": "2 66537  43.0005  90.1408 0001285 275.8167 326.7997 15.65135057  4000"}}, "geometry": {"type": "Point", "coordinates": [49.46192179281049, -29.165854277515564]}}, {"type": "Feature", "properties": {"norad_id": 66538, "name": "STARLINK-35577", "group": "last-30-days", "lat": -28.107992770184325, "lon": 51.27589303174711, "alt_km": 382.2553827845777, "timestamp": "2025-12-07T05:38:08.684761+00:00", "meta": {"OBJECT_NAME": "STARLINK-35577", "OBJECT_ID": "2025-265Y", "EPOCH": "2025-12-06T14:00:01.999872", "MEAN_MOTION": 15.65134453, "ECCENTRICITY": 0.00013239, "INCLINATION": 43.0005, "RA_OF_ASC_NODE": 90.1357, "ARG_OF_PERICENTER": 277.6213, "MEAN_ANOMALY": 326.9121, "EPHEMERIS_TYPE": 0, "CLASSIFICATION_TYPE": "U", "NORAD_CAT_ID": 66538, "ELEMENT_SET_NO": 999, "REV_AT_EPOCH": 400, "BSTAR": -0.022197059, "MEAN_MOTION_DOT": -0.0198509, "MEAN_MOTION_DDOT": 0}, "tle": {"line1": "1 66538U 25265Y   25340.58335648 -.01985090  00000+0 -22197-1 0  9999", "line2": "2 66538  43.0005  90.1357 0001323 277.6213 326.9121 15.65134453  4009"}}, "geometry": {"type": "Point", "coordinates": [51.27589303174711, -28.107992770184325]}}, {"type": "Feature", "properties": {"norad_id": 66539, "name": "STARLINK-35697", "group": "last-30-days", "lat": -27.027157898201803, "lon": 53.053116769161036, "alt_km": 382.229265537786, "timestamp": "2025-12-07T05:38:08.684772+00:00", "meta": {"OBJECT_NAME": "STARLINK-35697", "OBJECT_ID": "2025-265Z", "EPOCH": "2025-12-06T14:00:01.999872", "MEAN_MOTION": 15.65136685, "ECCENTRICITY": 0.00012916, "INCLINATION": 43.0004, "RA_OF_ASC_NODE": 90.1308, "ARG_OF_PERICENTER": 277.4648, "MEAN_ANOMALY": 328.9846, "EPHEMERIS_TYPE": 0, "CLASSIFICATION_TYPE": "U", "NORAD_CAT_ID": 66539, "ELEMENT_SET_NO": 999, "REV_AT_EPOCH": 400, "BSTAR": -0.022233766, "MEAN_MOTION_DOT": -0.01988108, "MEAN_MOTION_DDOT": 0}, "tle": {"line1": "1 66539U 25265Z   25340.58335648 -.01988108  00000+0 -22234-1 0  9995", "line2": "2 66539  43.0004  90.1308 0001291 277.4648 328.9846 15.65136685  4004"}}, "geometry": {"type": "Point", "coordinates": [53.053116769161036, -27.027157898201803]}}]}